[{"OBJECT_NAME":"STARLINK-4193","OBJECT_ID":"2022-062AX","EPOCH":"2026-03-09T05:19:44.224032","MEAN_MOTION":15.08828771,"ECCENTRICITY":0.00016177,"INCLINATION":53.2193,"RA_OF_ASC_NODE":16.2197,"ARG_OF_PERICENTER":91.852,"MEAN_ANOMALY":268.2658,"EPHEMERIS_TYPE":0,"CLASSIFICATION_TYPE":"U","NORAD_CAT_ID":52875,"ELEMENT_SET_NO":999,"REV_AT_EPOCH":20599,"BSTAR":-6.1283809e-5,"MEAN_MOTION_DOT":-1.263e-5,"MEAN_MOTION_DDOT":0},{"OBJECT_NAME":"OBJECT G","OBJECT_ID":"2024-205G","EPOCH":"2026-03-09T23:05:54.449664","MEAN_MOTION":15.09392775,"ECCENTRICITY":0.00211709,"INCLINATION":97.4199,"RA_OF_ASC_NODE":141.9686,"ARG_OF_PERICENTER":130.0324,"MEAN_ANOMALY":230.2768,"EPHEMERIS_TYPE":0,"CLASSIFICATION_TYPE":"U","NORAD_CAT_ID":61900,"ELEMENT_SET_NO":999,"REV_AT_EPOCH":7318,"BSTAR":0.00059967322,"MEAN_MOTION_DOT":9.576e-5,"MEAN_MOTION_DDOT":0}]
